STARLINK-3137
1 49449U 21104AT  26092.83335647  .00086318  00000+0  19118-2 0  9993
2 49449  53.2153  91.3995 0003326  55.6862   3.6773 15.43065171  5816
